ELYSIUM STAR 2 & LFF    
1 43760U 18099C   24177.74342669  .00037577  00000+0  14284-2 0  9998
2 43760  97.5156 245.3959 0006357 225.3642 134.7078 15.26673097304549
